KUZGTU 1 (RS47S)        
1 57217U 23091AV  26166.92217443  .00010394  00000+0  36149-3 0  9992
2 57217  97.5067 231.3892 0012336 101.9153 258.3471 15.29838015164183
SONATE-2                
1 59112U 24043Q   26166.66172283  .00034167  00000+0  44548-3 0  9995
2 59112  97.5531 316.9638 0007014 200.7175 159.3797 15.58618776127656
MESAT1                  
1 60209U 24125G   26166.56984892  .00049760  00000+0  54559-3 0  9999
2 60209  97.2286  24.0156 0009428 209.2341 150.8391 15.63051730109317
OOV-CUBE (TUBSAT-30)    
1 60240U 24128F   26166.59161287  .00001776  00000+0  14516-3 0  9999
2 60240  61.9945 231.1374 0044790 133.3400 227.1438 15.02768887105877
COLIBRI-S (RS67S)       
1 61746U 24199M   26166.96269565  .00018294  00000+0  35512-3 0  9990
2 61746  97.2993  40.8061 0006265 285.1286  74.9271 15.47682702137222
HORS 3 (RS81S)          
1 61753U 24199U   26166.93111972  .00031497  00000+0  47180-3 0  9997
2 61753  97.2977  42.7470 0003743 285.4717  74.6124 15.54898417137366
HORS 4 (RS82S)          
1 61754U 24199V   26166.95964853  .00041530  00000+0  52179-3 0  9997
2 61754  97.2924  43.9699 0003051 266.2773  93.8135 15.59585672137452
SIT-2086                
1 61764U 24199AF  26166.90783660  .00029627  00000+0  47528-3 0  9993
2 61764  97.2935  43.2044 0004466 257.0785 102.9970 15.53011859134231
HYPERVIEW 1G (RS66S)    
1 61772U 24199AP  26166.91947820  .00122005  00000+0  79464-3 0  9991
2 61772  97.2873  46.5756 0003487 225.1821 134.9161 15.75547046134475
ALTAIR (RS65S)          
1 61779U 24199AW  26166.94013850  .00007419  00000+0  20679-3 0  9993
2 61779  97.3029  36.2995 0011233 316.3025  43.7329 15.37007137136929
ASRTU-1 (AO-123)        
1 61781U 24199AY  26166.92694776  .00006696  00000+0  19498-3 0  9999
2 61781  97.2999  35.6094 0012419 319.2894  40.7420 15.35660903133732
SAMSAT-IONOSPHERE (RS7*)
1 61784U 24199BB  26166.90301110  .00036479  00000+0  49530-3 0  9999
2 61784  97.2946  42.7606 0005859 282.9831  77.0770 15.57527006137366
RTU MIREA 1 (RS51S)     
1 61785U 24199BC  26166.93026197  .00046838  00000+0  55758-3 0  9991
2 61785  97.2934  43.6137 0005489 274.5146  85.5484 15.60967644134271
TEVEL2-4                
1 63213U 25052D   26166.68245348  .00015491  00000+0  46436-3 0  9995
2 63213  97.3913  63.0717 0004849 106.3363 253.8414 15.34567843 69884
TEVEL2-5                
1 63214U 25052E   26166.96364297  .00014759  00000+0  44491-3 0  9997
2 63214  97.3907  63.3018 0004761 106.7826 253.3939 15.34401935 69927
TEVEL2-6                
1 63215U 25052F   26166.71508266  .00015670  00000+0  47278-3 0  9996
2 63215  97.3914  63.0372 0004683 108.2404 251.9350 15.34360157 69884
TEVEL2-1                
1 63217U 25052H   26166.67835869  .00014861  00000+0  45615-3 0  9999
2 63217  97.3883  62.6268 0004711 116.5645 243.6081 15.33827137 69863
TEVEL2-3                
1 63218U 25052J   26166.67305633  .00015117  00000+0  46315-3 0  9994
2 63218  97.3888  62.6431 0004675 116.5450 243.6272 15.33881810 69864
TEVEL2-2                
1 63219U 25052K   26166.67868108  .00015064  00000+0  46221-3 0  9993
2 63219  97.3885  62.6296 0004687 116.9580 243.2142 15.33835792 69862
TEVEL2-9                
1 63237U 25052AD  26166.65415554  .00013750  00000+0  44881-3 0  9994
2 63237  97.3947  61.9834 0007675 135.1334 225.0529 15.31858774 69793
TEVEL2-7                
1 63238U 25052AE  26166.95610824  .00012388  00000+0  40832-3 0  9993
2 63238  97.3948  62.2015 0007779 134.5643 225.6235 15.31570712 69839
TEVEL2-8                
1 63239U 25052AF  26166.96434749  .00012397  00000+0  40879-3 0  9996
2 63239  97.3947  62.1866 0007790 135.1271 225.0601 15.31555084 69835
INNOSAT 16 (RS92S7)     
1 64878U 25155C   26166.95249689  .00004920  00000+0  19718-3 0  9997
2 64878  97.4564 134.0842 0010403 179.7029 180.4217 15.25446281 80486
GEOSCAN 6 (RS92S6)      
1 64879U 25155D   26166.93905388  .00008653  00000+0  29910-3 0  9993
2 64879  97.4556 135.4861 0008196 166.3364 193.8100 15.30131935 80576
GEOSCAN 1 (RS92S1)      
1 64880U 25155E   26166.94198716  .00009035  00000+0  30652-3 0  9995
2 64880  97.4552 135.6359 0008135 166.0578 194.0889 15.30725469 80584
239ALFEROV (RS61S)      
1 64881U 25155F   26166.97868527  .00012472  00000+0  39427-3 0  9991
2 64881  97.4553 136.2301 0007878 162.8438 197.3072 15.32913181 80629
GEOSCAN 2 (RS92S2)      
1 64890U 25155Q   26166.93589242  .00009639  00000+0  32409-3 0  9995
2 64890  97.4551 135.7818 0007978 153.1232 207.0424 15.30997085 80599
GEOSCAN 5 (RS92S5)      
1 64891U 25155R   26166.96795994  .00011782  00000+0  36903-3 0  9997
2 64891  97.4545 136.3565 0006577 166.3560 193.7861 15.33230353 80635
GEOSCAN 4 (RS92S4)      
1 64892U 25155S   26166.95227479  .00012190  00000+0  37988-3 0  9993
2 64892  97.4548 136.3886 0006654 166.0975 194.0452 15.33384028 80637
GEOSCAN 3 (RS92S3)      
1 64893U 25155T   26166.95462187  .00014339  00000+0  41931-3 0  9991
2 64893  97.4537 136.8171 0006584 164.2101 195.9349 15.35360471 80667
