OBJECT_NAME,OBJECT_ID,EPOCH,MEAN_MOTION,ECCENTRICITY,INCLINATION,RA_OF_ASC_NODE,ARG_OF_PERICENTER,MEAN_ANOMALY,EPHEMERIS_TYPE,CLASSIFICATION_TYPE,NORAD_CAT_ID,ELEMENT_SET_NO,REV_AT_EPOCH,BSTAR,MEAN_MOTION_DOT,MEAN_MOTION_DDOT
KUZGTU 1 (RS47S),2023-091AV,2026-06-15T22:07:55.870752,15.29838015,.00123367,97.5067,231.3892,101.9153,258.3471,0,U,57217,999,16418,.36149001E-3,.10394E-3,0
SONATE-2,2024-043Q,2026-06-15T15:52:52.852512,15.58618776,.00070146,97.5531,316.9638,200.7175,159.3797,0,U,59112,999,12765,.44547502E-3,.34167E-3,0
MESAT1,2024-125G,2026-06-15T13:40:34.946688,15.63051730,.00094286,97.2286,24.0156,209.2341,150.8391,0,U,60209,999,10931,.54558547E-3,.4976E-3,0
OOV-CUBE (TUBSAT-30),2024-128F,2026-06-15T14:11:55.351968,15.02768887,.00447908,61.9945,231.1374,133.3400,227.1438,0,U,60240,999,10587,.14515979E-3,.1776E-4,0
COLIBRI-S (RS67S),2024-199M,2026-06-15T23:06:16.904160,15.47682702,.00062652,97.2993,40.8061,285.1286,74.9271,0,U,61746,999,13722,.3551208E-3,.18294E-3,0
HORS 3 (RS81S),2024-199U,2026-06-15T22:20:48.743808,15.54898417,.00037438,97.2977,42.7470,285.4717,74.6124,0,U,61753,999,13736,.47180431E-3,.31497E-3,0
HORS 4 (RS82S),2024-199V,2026-06-15T23:01:53.632992,15.59585672,.00030516,97.2924,43.9699,266.2773,93.8135,0,U,61754,999,13745,.52178703E-3,.4153E-3,0
SIT-2086,2024-199AF,2026-06-15T21:47:17.082240,15.53011859,.00044663,97.2935,43.2044,257.0785,102.9970,0,U,61764,999,13423,.4752794E-3,.29627E-3,0
HYPERVIEW 1G (RS66S),2024-199AP,2026-06-15T22:04:02.916480,15.75547046,.00034878,97.2873,46.5756,225.1821,134.9161,0,U,61772,999,13447,.79464464E-3,.122005E-2,0
ALTAIR (RS65S),2024-199AW,2026-06-15T22:33:47.966400,15.37007137,.00112335,97.3029,36.2995,316.3025,43.7329,0,U,61779,999,13692,.20679174E-3,.7419E-4,0
ASRTU-1 (AO-123),2024-199AY,2026-06-15T22:14:48.286464,15.35660903,.00124194,97.2999,35.6094,319.2894,40.7420,0,U,61781,999,13373,.19498471E-3,.6696E-4,0
SAMSAT-IONOSPHERE (RS75S),2024-199BB,2026-06-15T21:40:20.159040,15.57527006,.00058593,97.2946,42.7606,282.9831,77.0770,0,U,61784,999,13736,.49529784E-3,.36479E-3,0
RTU MIREA 1 (RS51S),2024-199BC,2026-06-15T22:19:34.634208,15.60967644,.00054899,97.2934,43.6137,274.5146,85.5484,0,U,61785,999,13427,.55758413E-3,.46838E-3,0
TEVEL2-4,2025-052D,2026-06-15T16:22:43.980672,15.34567843,.00048498,97.3913,63.0717,106.3363,253.8414,0,U,63213,999,6988,.46435922E-3,.15491E-3,0
TEVEL2-5,2025-052E,2026-06-15T23:07:38.752608,15.34401935,.00047611,97.3907,63.3018,106.7826,253.3939,0,U,63214,999,6992,.44491329E-3,.14759E-3,0
TEVEL2-6,2025-052F,2026-06-15T17:09:43.141824,15.34360157,.00046836,97.3914,63.0372,108.2404,251.9350,0,U,63215,999,6988,.47277785E-3,.1567E-3,0
TEVEL2-1,2025-052H,2026-06-15T16:16:50.190816,15.33827137,.00047118,97.3883,62.6268,116.5645,243.6081,0,U,63217,999,6986,.45614808E-3,.14861E-3,0
TEVEL2-3,2025-052J,2026-06-15T16:09:12.066912,15.33881810,.00046753,97.3888,62.6431,116.5450,243.6272,0,U,63218,999,6986,.46315196E-3,.15117E-3,0
TEVEL2-2,2025-052K,2026-06-15T16:17:18.045312,15.33835792,.00046877,97.3885,62.6296,116.9580,243.2142,0,U,63219,999,6986,.4622071E-3,.15064E-3,0
TEVEL2-9,2025-052AD,2026-06-15T15:41:59.038656,15.31858774,.00076759,97.3947,61.9834,135.1334,225.0529,0,U,63237,999,6979,.44881414E-3,.1375E-3,0
TEVEL2-7,2025-052AE,2026-06-15T22:56:47.751936,15.31570712,.0007779,97.3948,62.2015,134.5643,225.6235,0,U,63238,999,6983,.40832307E-3,.12388E-3,0
TEVEL2-8,2025-052AF,2026-06-15T23:08:39.623136,15.31555084,.00077907,97.3947,62.1866,135.1271,225.0601,0,U,63239,999,6983,.40879301E-3,.12397E-3,0
INNOSAT 16 (RS92S7),2025-155C,2026-06-15T22:51:35.731296,15.25446281,.00104035,97.4564,134.0842,179.7029,180.4217,0,U,64878,999,8048,.19717709E-3,.492E-4,0
GEOSCAN 6 (RS92S6),2025-155D,2026-06-15T22:32:14.255232,15.30131935,.00081965,97.4556,135.4861,166.3364,193.8100,0,U,64879,999,8057,.29910186E-3,.8653E-4,0
GEOSCAN 1 (RS92S1),2025-155E,2026-06-15T22:36:27.690624,15.30725469,.0008135,97.4552,135.6359,166.0578,194.0889,0,U,64880,999,8058,.30652075E-3,.9035E-4,0
239ALFEROV (RS61S),2025-155F,2026-06-15T23:29:18.407328,15.32913181,.00078781,97.4553,136.2301,162.8438,197.3072,0,U,64881,999,8062,.39426556E-3,.12472E-3,0
GEOSCAN 2 (RS92S2),2025-155Q,2026-06-15T22:27:41.105088,15.30997085,.00079783,97.4551,135.7818,153.1232,207.0424,0,U,64890,999,8059,.32408773E-3,.9639E-4,0
GEOSCAN 5 (RS92S5),2025-155R,2026-06-15T23:13:51.738816,15.33230353,.00065772,97.4545,136.3565,166.3560,193.7861,0,U,64891,999,8063,.36903246E-3,.11782E-3,0
GEOSCAN 4 (RS92S4),2025-155S,2026-06-15T22:51:16.541856,15.33384028,.0006654,97.4548,136.3886,166.0975,194.0452,0,U,64892,999,8063,.37988142E-3,.1219E-3,0
GEOSCAN 3 (RS92S3),2025-155T,2026-06-15T22:54:39.329568,15.35360471,.00065843,97.4537,136.8171,164.2101,195.9349,0,U,64893,999,8066,.41931372E-3,.14339E-3,0
